GOES 1 (SMS-C) [-]      
1 08366U 75100A   22267.07162078 -.00000237  00000+0  00000+0 0  9997
2 08366   8.0433 294.4904 0003038 256.3705 116.8166  1.00263780171417
GOES 2 [-]              
1 10061U 77048A   22267.59391838 -.00000232  00000+0  00000+0 0  9995
2 10061   9.6305 306.0417 0010224  23.5479 358.9372  0.99396674 32749
GOES 3 [-]              
1 10953U 78062A   22267.00822615 -.00000272  00000+0  00000+0 0  9994
2 10953   9.9674 310.6002 0002732 176.5588 199.4821  0.99363738115000
GOES 4 [-]              
1 11964U 80074A   22266.36744816 -.00000237  00000+0  00000+0 0  9998
2 11964  10.9333 314.4334 0031442  78.1986  86.7097  0.99233589113917
GOES 5 [-]              
1 12472U 81049A   22267.07397519 -.00000277  00000+0  00000+0 0  9993
2 12472  11.7910 325.8453 0002455 195.1963 158.6900  1.00298012109188
GOES 6 [-]              
1 14050U 83041A   22267.26502685 -.00000260  00000+0  00000+0 0  9996
2 14050  12.3599 331.1643 0004902 162.3048 249.9826  1.00279400202367
GOES 7 [-]              
1 17561U 87022A   22267.59771773 -.00000335  00000+0  00000+0 0  9994
2 17561  14.1588 347.7306 0004565  82.6077 263.0166  0.99898288113357
GOES 8 [-]              
1 23051U 94022A   22267.43270545  .00000044  00000+0  00000+0 0  9993
2 23051  13.2608  23.4834 0004964  60.1283 310.4244  0.98903631110661
GOES 9 [-]              
1 23581U 95025A   22267.58192520 -.00000085  00000+0  00000+0 0  9993
2 23581  12.7549  23.8402 0008283 117.1716 174.3069  0.98798730 99305
GOES 10 [-]             
1 24786U 97019A   22267.45242023  .00000034  00000+0  00000+0 0  9999
2 24786  11.5308  30.0390 0027200 200.4813 186.8605  0.99121774 92578
GOES 11 [-]             
1 26352U 00022A   22266.92132700 -.00000024  00000+0  00000+0 0  9999
2 26352   8.8895  58.5197 0002523 131.0472 235.7562  0.99040079 38989
GOES 12 [-]             
1 26871U 01031A   22267.02339899  .00000034  00000+0  00000+0 0  9996
2 26871   9.6924  47.5193 0003382 328.9794  31.8404  0.99136512 77261
EWS-G1 (GOES 13) [+]    
1 29155U 06018A   22267.21576969  .00000034  00000+0  00000+0 0  9996
2 29155   0.8284  95.6108 0006209 115.4053 291.3833  1.00269613 29728
GOES 14 [B]             
1 35491U 09033A   22267.53498854 -.00000095  00000+0  00000+0 0  9995
2 35491   0.3803 267.3514 0017742 306.4140 237.7809  1.00273505 48455
GOES 15 [B]             
1 36411U 10008A   22267.50606861  .00000052  00000+0  00000+0 0  9990
2 36411   0.3406 277.5392 0004282 248.5338 251.4911  1.00264073 46000
GOES 16 [+]             
1 41866U 16071A   22266.59007865 -.00000252  00000+0  00000+0 0  9996
2 41866   0.0694 288.2831 0000699 312.0586 259.3206  1.00271508 21449
GOES 17 [+]             
1 43226U 18022A   22266.18824899  .00000094  00000+0  00000+0 0  9998
2 43226   0.0711 284.0243 0000235 278.3507  90.0936  1.00271752 16754
GOES 18 [+]             
1 51850U 22021A   22266.99563345  .00000094  00000+0  00000+0 0  9999
2 51850   0.0466  13.0322 0002858 205.9155   5.3385  1.00273102  2123
